IRIDIUM 150             
1 43257U 18030J   25021.39605801 -.00000078  00000+0 -35035-4 0  9991
2 43257  86.4016 144.4274 0002171 101.0943 259.0497 14.34217385356809
IRIDIUM 143             
1 43258U 18030K   25021.37703031  .00000557  00000+0  19189-3 0  9995
2 43258  86.4016 144.5079 0002434 104.5534 255.5931 14.34218608356735
IRIDIUM 161             
1 43478U 18047C   25021.29944078  .00001027  00000+0  29920-3 0  9993
2 43478  86.4503 302.3801 0002173  80.6517 279.4929 14.43286065351304
IRIDIUM 152             
1 43479U 18047D   25021.27996031  .00000770  00000+0  26772-3 0  9994
2 43479  86.3977 302.2477 0002060  84.9444 275.1986 14.34226751349116
IRIDIUM 147             
1 43480U 18047E   25021.28631986  .00000201  00000+0  64631-4 0  9998
2 43480  86.3979 302.2411 0002025  74.4580 285.6839 14.34213676349119
IRIDIUM 110             
1 43481U 18047F   25021.29266309  .00000725  00000+0  25196-3 0  9996
2 43481  86.3981 302.3170 0001691  80.8593 279.2794 14.34217530349100
IRIDIUM 162             
1 43482U 18047G   25021.29310286  .00001031  00000+0  30034-3 0  9999
2 43482  86.4502 302.2798 0001940  86.4509 273.6913 14.43291247351293
IRIDIUM 160             
1 43569U 18061A   25021.58734044  .00000587  00000+0  20264-3 0  9994
2 43569  86.3951 270.5514 0001914  79.1968 280.9443 14.34219219340047
